NORAD_CAT_ID,OBJECT_NAME,OBJECT_TYPE,EPOCH,MEAN_MOTION,ECCENTRICITY,INCLINATION,RA_OF_ASC_NODE,ARG_OF_PERICENTER,MEAN_ANOMALY,BSTAR,MEAN_MOTION_DOT,MEAN_MOTION_DDOT,TLE_LINE0,TLE_LINE1,TLE_LINE2,SEMIMAJOR_AXIS,PERIOD,APOGEE,PERIGEE,DECAYED
56785.0,STARLINK-5931,PAYLOAD,2024-02-24 03:49:30,14.98329646,0.000296,69.9995,61.8077,269.3243,90.7577,2.0727e-05,1.54e-06,0.0,0 STARLINK-5931,1 56785U 23078U   24055.15937770  .00000154  00000-0  20727-4 0  9998,2 56785  69.9995  61.8077 0002960 269.3243  90.7577 14.98329646 41412,6950.194,96.107,574.116,570.002,0.0
56785.0,STARLINK-5931,PAYLOAD,2024-02-24 10:14:02,14.98332175,0.0003025,69.9994,61.1345,269.4864,90.5948,2.1482e-05,1.63e-06,0.0,0 STARLINK-5931,1 56785U 23078U   24055.42641589  .00000163  00000-0  21482-4 0  9997,2 56785  69.9994  61.1345 0003025 269.4864  90.5948 14.98332175 41887,6950.186,96.107,574.154,569.949,0.0
56785.0,STARLINK-5931,PAYLOAD,2024-02-24 18:14:42,14.9833005,0.0002986,69.9996,60.2927,269.8894,90.1923,2.0973e-05,1.57e-06,0.0,0 STARLINK-5931,1 56785U 23078U   24055.76021704  .00000157  00000-0  20973-4 0  9992,2 56785  69.9996  60.2927 0002986 269.8894  90.1923 14.98330050 41932,6950.193,96.107,574.133,569.982,0.0
56785.0,STARLINK-5931,PAYLOAD,2024-02-25 03:51:31,14.98329768,0.0002996,69.9995,59.2827,269.7754,90.3062,3.333e-05,3.05e-06,0.0,0 STARLINK-5931,1 56785U 23078U   24056.16077673  .00000305  00000-0  33330-4 0  9999,2 56785  69.9995  59.2827 0002996 269.7754  90.3062 14.98329768 41562,6950.194,96.107,574.141,569.976,0.0
56785.0,STARLINK-5931,PAYLOAD,2024-02-25 10:16:03,14.98329061,0.0002954,69.9998,58.6096,269.5691,90.5129,0.00010004,1.101e-05,0.0,0 STARLINK-5931,1 56785U 23078U   24056.42781529  .00001101  00000-0  10004-3 0  9997,2 56785  69.9998  58.6096 0002954 269.5691  90.5129 14.98329061 42033,6950.196,96.107,574.114,570.008,0.0
56785.0,STARLINK-5931,PAYLOAD,2024-02-25 23:05:08,14.98328958,0.0002963,69.9999,57.263,270.5633,89.5186,-2.8341e-05,-4.31e-06,0.0,0 STARLINK-5931,1 56785U 23078U   24056.96189862 -.00000431  00000-0 -28341-4 0  9999,2 56785  69.9999  57.2630 0002963 270.5633  89.5186 14.98328958 42115,6950.196,96.107,574.12,570.002,0.0
56785.0,STARLINK-5931,PAYLOAD,2024-02-26 03:53:32,14.98329899,0.0002967,69.9998,56.758,270.4591,89.6228,-1.7805e-05,-3.05e-06,0.0,0 STARLINK-5931,1 56785U 23078U   24057.16217753 -.00000305  00000-0 -17805-4 0  9996,2 56785  69.9998  56.7580 0002967 270.4591  89.6228 14.98329899 41716,6950.193,96.107,574.12,569.996,0.0
56785.0,STARLINK-5931,PAYLOAD,2024-02-26 10:18:03,14.98361658,0.0002576,70.0,56.0848,263.51,96.5766,-0.00048481,-5.877e-05,0.0,0 STARLINK-5931,1 56785U 23078U   24057.42920763 -.00005877  00000-0 -48481-3 0  9999,2 56785  70.0000  56.0848 0002576 263.5100  96.5766 14.98361658 41755,6950.095,96.105,573.75,570.17,0.0
56785.0,STARLINK-5931,PAYLOAD,2024-02-26 23:07:08,14.98324004,0.0002738,70.0005,54.7397,270.8906,89.194,0.00011692,1.302e-05,0.0,0 STARLINK-5931,1 56785U 23078U   24057.96329669  .00001302  00000-0  11692-3 0  9997,2 56785  70.0005  54.7397 0002738 270.8906  89.1940 14.98324004 42262,6950.211,96.107,573.979,570.173,0.0
56785.0,STARLINK-5931,PAYLOAD,2024-02-27 03:55:33,14.98304533,0.0002966,70.0005,54.2347,267.8255,92.2565,0.00044715,5.243e-05,0.0,0 STARLINK-5931,1 56785U 23078U   24058.16358103  .00005243  00000-0  44715-3 0  9995,2 56785  70.0005  54.2347 0002966 267.8255  92.2565 14.98304533 41866,6950.272,96.109,574.198,570.075,0.0
56785.0,STARLINK-5931,PAYLOAD,2024-02-27 10:20:05,14.9833283,0.0002732,70.0005,53.561,265.2523,94.8324,-2.7211e-05,-4.18e-06,0.0,0 STARLINK-5931,1 56785U 23078U   24058.43061449 -.00000418  00000-0 -27211-4 0  9993,2 56785  70.0005  53.5610 0002732 265.2523  94.8324 14.98332830 41909,6950.184,96.107,573.948,570.15,0.0
56785.0,STARLINK-5931,PAYLOAD,2024-02-27 23:09:09,14.98332999,0.0002604,70.0008,52.213,265.9923,94.0939,-6.0576e-05,-8.16e-06,0.0,0 STARLINK-5931,1 56785U 23078U   24058.96469618 -.00000816  00000-0 -60576-4 0  9994,2 56785  70.0008  52.2130 0002604 265.9923  94.0939 14.98332999 42411,6950.184,96.107,573.858,570.239,0.0
56785.0,STARLINK-5931,PAYLOAD,2024-02-28 10:22:06,14.98330001,0.000274,70.0003,51.0358,267.6879,92.3967,3.8992e-06,-4.6e-07,0.0,0 STARLINK-5931,1 56785U 23078U   24059.43201553 -.00000046  00000-0  38992-5 0  9991,2 56785  70.0003  51.0358 0002740 267.6879  92.3967 14.98330001 42059,6950.193,96.107,573.962,570.154,0.0
56785.0,STARLINK-5931,PAYLOAD,2024-02-28 16:46:38,14.98326972,0.0002896,69.9999,50.3615,268.9113,91.1714,-4.3221e-06,-1.45e-06,0.0,0 STARLINK-5931,1 56785U 23078U   24059.69905758 -.00000145  00000-0 -43221-5 0  9999,2 56785  69.9999  50.3615 0002896 268.9113  91.1714 14.98326972 42526,6950.202,96.107,574.08,570.054,0.0
56785.0,STARLINK-5931,PAYLOAD,2024-02-29 08:47:59,14.98328986,0.0002777,70.0003,48.6787,267.8228,92.2613,-7.5537e-06,-1.83e-06,0.0,0 STARLINK-5931,1 56785U 23078U   24060.36665659 -.00000183  00000-0 -75537-5 0  9995,2 56785  70.0003  48.6787 0002777 267.8228  92.2613 14.98328986 42626,6950.196,96.107,573.991,570.131,0.0
56785.0,STARLINK-5931,PAYLOAD,2024-02-29 16:48:39,14.98326621,0.000296,70.0,47.8367,260.9368,99.1457,1.7479e-05,1.16e-06,0.0,0 STARLINK-5931,1 56785U 23078U   24060.70045682  .00000116  00000-0  17479-4 0  9995,2 56785  70.0000  47.8367 0002960 260.9368  99.1457 14.98326621 42245,6950.203,96.107,574.126,570.011,0.0
56785.0,STARLINK-5931,PAYLOAD,2024-03-01 08:49:59,14.98331561,0.0002924,70.0001,46.1535,269.888,90.1944,1.8168e-05,1.24e-06,0.0,0 STARLINK-5931,1 56785U 23078U   24061.36805427  .00000124  00000-0  18168-4 0  9994,2 56785  70.0001  46.1535 0002924 269.8880  90.1944 14.98331561 42771,6950.188,96.107,574.085,570.021,0.0
56785.0,STARLINK-5931,PAYLOAD,2024-03-02 04:03:36,14.98330987,0.0002935,70.0003,44.1336,270.0654,90.0169,2.5716e-05,2.14e-06,0.0,0 STARLINK-5931,1 56785U 23078U   24062.16917375  .00000214  00000-0  25716-4 0  9996,2 56785  70.0003  44.1336 0002935 270.0654  90.0169 14.98330987 42460,6950.19,96.107,574.095,570.015,0.0
56785.0,STARLINK-5931,PAYLOAD,2024-03-02 08:52:00,14.98335398,0.0002921,70.0002,43.6286,270.1217,89.9607,5.6456e-05,5.81e-06,0.0,0 STARLINK-5931,1 56785U 23078U   24062.36944962  .00000581  00000-0  56456-4 0  9992,2 56785  70.0002  43.6286 0002921 270.1217  89.9607 14.98335398 42924,6950.176,96.107,574.071,570.011,0.0
56785.0,STARLINK-5931,PAYLOAD,2024-03-03 04:05:37,14.98331304,0.0002671,70.0008,41.6084,271.8367,88.2486,-2.9038e-05,-4.39e-06,0.0,0 STARLINK-5931,1 56785U 23078U   24063.17057408 -.00000439  00000-0 -29038-4 0  9992,2 56785  70.0008  41.6084 0002671 271.8367  88.2486 14.98331304 42616,6950.189,96.107,573.91,570.197,0.0
56785.0,STARLINK-5931,PAYLOAD,2024-03-03 08:54:01,14.98330491,0.0002741,70.0008,41.1039,270.5173,89.5672,9.1271e-06,1.6e-07,0.0,0 STARLINK-5931,1 56785U 23078U   24063.37085337  .00000016  00000-0  91271-5 0  9994,2 56785  70.0008  41.1039 0002741 270.5173  89.5672 14.98330491 43078,6950.191,96.107,573.961,570.151,0.0
56785.0,STARLINK-5931,PAYLOAD,2024-03-04 04:07:38,14.98330432,0.0002435,70.0012,39.0838,257.9624,102.1263,-4.108e-06,-1.42e-06,0.0,0 STARLINK-5931,1 56785U 23078U   24064.17197268 -.00000142  00000-0 -41080-5 0  9995,2 56785  70.0012  39.0838 0002435 257.9624 102.1263 14.98330432 42764,6950.192,96.107,573.749,570.364,0.0
56785.0,STARLINK-5931,PAYLOAD,2024-03-04 07:19:54,14.9833698,0.0002609,70.0013,38.7472,263.5731,96.5131,7.2827e-05,7.76e-06,0.0,0 STARLINK-5931,1 56785U 23078U   24064.30548651  .00000776  00000-0  72827-4 0  9999,2 56785  70.0013  38.7472 0002609 263.5731  96.5131 14.98336980 42786,6950.171,96.107,573.85,570.223,0.0
56785.0,STARLINK-5931,PAYLOAD,2024-03-04 15:20:34,14.98332635,0.0002556,70.0024,37.9039,273.6777,86.4089,-1.3875e-05,-2.58e-06,0.0,0 STARLINK-5931,1 56785U 23078U   24064.63929074 -.00000258  00000-0 -13875-4 0  9992,2 56785  70.0024  37.9039 0002556 273.6777  86.4089 14.98332635 43268,6950.185,96.107,573.826,570.273,0.0
56785.0,STARLINK-5931,PAYLOAD,2024-03-05 02:33:31,14.98322778,0.0002798,70.0003,36.7261,258.8283,101.2562,-4.0904e-05,-5.81e-06,0.0,0 STARLINK-5931,1 56785U 23078U   24065.10661711 -.00000581  00000-0 -40904-4 0  9998,2 56785  70.0003  36.7261 0002798 258.8283 101.2562 14.98322778 42903,6950.215,96.107,574.025,570.136,0.0
56785.0,STARLINK-5931,PAYLOAD,2024-03-05 07:21:55,14.98323892,0.0002759,70.0008,36.2223,258.9647,101.1202,-4.074e-05,-5.79e-06,0.0,0 STARLINK-5931,1 56785U 23078U   24065.30689756 -.00000579  00000-0 -40740-4 0  9994,2 56785  70.0008  36.2223 0002759 258.9647 101.1202 14.98323892 43362,6950.212,96.107,573.994,570.159,0.0
56785.0,STARLINK-5931,PAYLOAD,2024-03-06 04:11:39,14.98339819,0.0002545,70.0014,34.0332,258.0993,101.9881,0.00014266,1.61e-05,0.0,0 STARLINK-5931,1 56785U 23078U   24066.17476423  .00001610  00000-0  14266-3 0  9993,2 56785  70.0014  34.0332 0002545 258.0993 101.9881 14.98339819 43068,6950.163,96.106,573.796,570.259,0.0
56785.0,STARLINK-5931,PAYLOAD,2024-03-06 07:23:56,14.98335129,0.0002823,70.0011,33.6968,262.5891,97.4947,8.2074e-05,8.87e-06,0.0,0 STARLINK-5931,1 56785U 23078U   24066.30828819  .00000887  00000-0  82074-4 0  9996,2 56785  70.0011  33.6968 0002823 262.5891  97.4947 14.98335129 43513,6950.177,96.107,574.004,570.08,0.0
56785.0,STARLINK-5931,PAYLOAD,2024-03-07 04:13:41,14.98327878,0.0003029,70.0012,31.5105,268.3306,91.7506,0.00010973,1.216e-05,0.0,0 STARLINK-5931,1 56785U 23078U   24067.17617158  .00001216  00000-0  10973-3 0  9999,2 56785  70.0012  31.5105 0003029 268.3306  91.7506 14.98327878 43215,6950.199,96.107,574.17,569.959,0.0
56785.0,STARLINK-5931,PAYLOAD,2024-03-07 07:25:57,14.98328556,0.0003003,70.0013,31.1735,267.8139,92.2676,0.00011684,1.301e-05,0.0,0 STARLINK-5931,1 56785U 23078U   24067.30969107  .00001301  00000-0  11684-3 0  9993,2 56785  70.0013  31.1735 0003003 267.8139  92.2676 14.98328556 43668,6950.197,96.107,574.15,569.975,0.0
